STARLINK-36729          
1 67905U 26036B   26075.83335647 -.01841247  00000+0 -29989-1 0  9999
2 67905  43.0000 206.7909 0001626 275.6617  67.7863 15.55174830  4794
STARLINK-36763          
1 67906U 26036C   26075.83335647 -.01843152  00000+0 -28982-1 0  9999
2 67906  42.9998 206.7271 0001675 275.7301  93.3866 15.56119347  4797
STARLINK-36742          
1 67907U 26036D   26075.83335647 -.01843081  00000+0 -29993-1 0  9994
2 67907  42.9999 206.7679 0001676 274.2462  78.3185 15.55200679  4799
STARLINK-36827          
1 67908U 26036E   26075.83335647 -.01830379  00000+0 -25075-1 0  9998
2 67908  42.9998 206.5205 0001745 287.3777 164.9946 15.59718089  4793
STARLINK-36822          
1 67909U 26036F   26075.83335647 -.01843255  00000+0 -29388-1 0  9997
2 67909  42.9999 206.7155 0001651 276.4232  97.2119 15.55749751  4798
STARLINK-36847          
1 67910U 26036G   26075.83335647 -.01840749  00000+0 -30305-1 0  9995
2 67910  43.0001 206.7535 0001501 275.0451  83.0976 15.54886426  4794
STARLINK-36736          
1 67911U 26036H   26075.83335647 -.01854388  00000+0 -22220-1 0  9997
2 67911  42.9999 206.3363 0001350 290.1012 236.1440 15.63184109  4793
STARLINK-36676          
1 67912U 26036J   26075.83335647 -.01866049  00000+0 -24312-1 0  9999
2 67912  43.0003 206.4154 0001491 284.2568 210.1351 15.61077415  4799
STARLINK-36690          
1 67913U 26036K   26075.83335647 -.01866323  00000+0 -24277-1 0  9995
2 67913  43.0000 206.4017 0001398 285.2691 214.1398 15.61118590  4794
STARLINK-36724          
1 67914U 26036L   26075.83335647 -.01863553  00000+0 -23875-1 0  9991
2 67914  42.9999 206.3634 0001423 290.6182 224.1910 15.61502531  4791
STARLINK-36723          
1 67915U 26036M   26075.83335647 -.01854273  00000+0 -22522-1 0  9999
2 67915  43.0000 206.3179 0001276 285.2555 248.2380 15.62842675  4796
STARLINK-36721          
1 67916U 26036N   26075.83335647 -.01850445  00000+0 -22440-1 0  9996
2 67916  43.0000 206.2950 0001251 285.7264 256.8971 15.62876392  4792
